NORAD_CAT_ID,OBJECT_NAME,OBJECT_TYPE,EPOCH,MEAN_MOTION,ECCENTRICITY,INCLINATION,RA_OF_ASC_NODE,ARG_OF_PERICENTER,MEAN_ANOMALY,BSTAR,MEAN_MOTION_DOT,MEAN_MOTION_DDOT,TLE_LINE0,TLE_LINE1,TLE_LINE2,SEMIMAJOR_AXIS,PERIOD,APOGEE,PERIGEE,DECAYED
55928.0,STARLINK-5930,PAYLOAD,2023-10-05 11:15:39,14.98326333,0.0002921,70.0021,18.7893,273.4357,86.6468,-4.5683e-06,-1.47e-06,0.0,0 STARLINK-5930,1 55928U 23037Q   23278.46920245 -.00000147  00000-0 -45683-5 0  9993,2 55928  70.0021  18.7893 0002921 273.4357  86.6468 14.98326333 31084,6950.204,96.107,574.099,570.039,0.0
55928.0,STARLINK-5930,PAYLOAD,2023-10-05 12:51:46,14.98329292,0.0002805,70.0013,18.6198,272.6425,87.4413,1.0712e-06,-8e-07,0.0,0 STARLINK-5930,1 55928U 23037Q   23278.53596026 -.00000080  00000-0  10712-5 0  9997,2 55928  70.0013  18.6198 0002805 272.6425  87.4413 14.98329292 30759,6950.195,96.107,574.01,570.111,0.0
55928.0,STARLINK-5930,PAYLOAD,2023-10-05 16:04:03,14.98330251,0.000295,70.0014,18.2835,274.5807,85.5015,1.2065e-05,5.1e-07,0.0,0 STARLINK-5930,1 55928U 23037Q   23278.66947928  .00000051  00000-0  12065-4 0  9991,2 55928  70.0014  18.2835 0002950 274.5807  85.5015 14.98330251 30776,6950.192,96.107,574.107,570.007,0.0
55928.0,STARLINK-5930,PAYLOAD,2023-10-06 12:53:48,14.9832538,0.0003043,70.0006,16.0933,271.7441,88.3369,-7.4491e-05,-9.82e-06,0.0,0 STARLINK-5930,1 55928U 23037Q   23279.53736507 -.00000982  00000-0 -74491-4 0  9993,2 55928  70.0006  16.0933 0003043 271.7441  88.3369 14.98325380 30904,6950.207,96.107,574.187,569.957,0.0
55928.0,STARLINK-5930,PAYLOAD,2023-10-06 16:06:04,14.98327589,0.0002729,70.0009,15.7567,269.9734,90.1112,-8.3946e-05,-1.094e-05,0.0,0 STARLINK-5930,1 55928U 23037Q   23279.67088430 -.00001094  00000-0 -83946-4 0  9993,2 55928  70.0009  15.7567 0002729 269.9734  90.1112 14.98327589 31260,6950.2,96.107,573.962,570.169,0.0
55928.0,STARLINK-5930,PAYLOAD,2023-10-07 12:55:48,14.98333784,0.0002717,70.0007,13.568,263.5132,96.5718,0.00011271,1.252e-05,0.0,0 STARLINK-5930,1 55928U 23037Q   23280.53875557  .00001252  00000-0  11271-3 0  9999,2 55928  70.0007  13.5680 0002717 263.5132  96.5718 14.98333784 31052,6950.181,96.107,573.935,570.158,0.0
55928.0,STARLINK-5930,PAYLOAD,2023-10-07 16:08:04,14.98334514,0.0002736,70.0008,13.2314,265.1247,94.96,0.00016141,1.834e-05,0.0,0 STARLINK-5930,1 55928U 23037Q   23280.67227366  .00001834  00000-0  16141-3 0  9990,2 55928  70.0008  13.2314 0002736 265.1247  94.9600 14.98334514 31414,6950.179,96.107,573.946,570.142,0.0
55928.0,STARLINK-5930,PAYLOAD,2023-10-08 00:08:45,14.98334688,0.0002643,70.0021,12.3884,282.6378,77.4485,-3.3667e-06,-1.33e-06,0.0,0 STARLINK-5930,1 55928U 23037Q   23281.00607801 -.00000133  00000-0 -33667-5 0  9991,2 55928  70.0021  12.3884 0002643 282.6378  77.4485 14.98334688 31461,6950.178,96.107,573.88,570.206,0.0
55928.0,STARLINK-5930,PAYLOAD,2023-10-08 09:45:33,14.98324684,0.0002572,70.0012,11.3798,272.2016,87.8848,5.9956e-05,6.22e-06,0.0,0 STARLINK-5930,1 55928U 23037Q   23281.40664306  .00000622  00000-0  59956-4 0  9997,2 55928  70.0012  11.3798 0002572 272.2016  87.8848 14.98324684 31529,6950.209,96.107,573.862,570.287,0.0
55928.0,STARLINK-5930,PAYLOAD,2023-10-08 12:57:49,14.98327653,0.0002675,70.0011,11.0439,273.9207,86.1646,8.3622e-05,9.05e-06,0.0,0 STARLINK-5930,1 55928U 23037Q   23281.54016085  .00000905  00000-0  83622-4 0  9998,2 55928  70.0011  11.0439 0002675 273.9207  86.1646 14.98327653 31203,6950.2,96.107,573.924,570.206,0.0
55928.0,STARLINK-5930,PAYLOAD,2023-10-08 16:10:05,14.98328044,0.0002683,70.0018,10.7072,274.0968,85.9884,0.00010028,1.104e-05,0.0,0 STARLINK-5930,1 55928U 23037Q   23281.67368025  .00001104  00000-0  10028-3 0  9997,2 55928  70.0018  10.7072 0002683 274.0968  85.9884 14.98328044 31222,6950.199,96.107,573.929,570.199,0.0
55928.0,STARLINK-5930,PAYLOAD,2023-10-09 12:59:50,14.98336337,0.0002362,70.0016,8.5191,270.887,89.2018,-3.1463e-05,-4.68e-06,0.0,0 STARLINK-5930,1 55928U 23037Q   23282.54155889 -.00000468  00000-0 -31463-4 0  9997,2 55928  70.0016   8.5191 0002362 270.8870  89.2018 14.98336337 31351,6950.173,96.107,573.68,570.397,0.0
55928.0,STARLINK-5930,PAYLOAD,2023-10-09 16:12:06,14.98340487,0.0002363,70.0018,8.1825,271.4728,88.6161,-7.1896e-05,-9.51e-06,0.0,0 STARLINK-5930,1 55928U 23037Q   23282.67507665 -.00000951  00000-0 -71896-4 0  9995,2 55928  70.0018   8.1825 0002363 271.4728  88.6161 14.98340487 31716,6950.16,96.106,573.668,570.383,0.0
55928.0,STARLINK-5930,PAYLOAD,2023-10-10 09:49:35,14.98329286,0.0002677,70.0019,6.3324,276.7912,83.2943,0.00013791,1.553e-05,0.0,0 STARLINK-5930,1 55928U 23037Q   23283.40943581  .00001553  00000-0  13791-3 0  9994,2 55928  70.0019   6.3324 0002677 276.7912  83.2943 14.98329286 31827,6950.195,96.107,573.921,570.2,0.0
55928.0,STARLINK-5930,PAYLOAD,2023-10-10 13:01:51,14.98333492,0.0002517,70.0016,5.9957,268.1823,91.9047,0.00011435,1.272e-05,0.0,0 STARLINK-5930,1 55928U 23037Q   23283.54295313  .00001272  00000-0  11435-3 0  9993,2 55928  70.0016   5.9957 0002517 268.1823  91.9047 14.98333492 31500,6950.182,96.107,573.796,570.298,0.0
55928.0,STARLINK-5930,PAYLOAD,2023-10-10 16:14:06,14.98336908,0.0002423,70.0017,5.658,262.584,97.5043,0.00012997,1.458e-05,0.0,0 STARLINK-5930,1 55928U 23037Q   23283.67646973  .00001458  00000-0  12997-3 0  9999,2 55928  70.0017   5.6580 0002423 262.5840  97.5043 14.98336908 31865,6950.172,96.107,573.721,570.353,0.0
55928.0,STARLINK-5930,PAYLOAD,2023-10-11 11:27:44,14.9832514,0.0002793,70.0008,3.638,266.2925,93.7915,-9.5261e-05,-1.229e-05,0.0,0 STARLINK-5930,1 55928U 23037Q   23284.47760301 -.00001229  00000-0 -95261-4 0  9994,2 55928  70.0008   3.6380 0002793 266.2925  93.7915 14.98325140 31981,6950.208,96.107,574.014,570.132,0.0
55928.0,STARLINK-5930,PAYLOAD,2023-10-11 13:03:52,14.98325121,0.0002733,70.001,3.47,266.4408,93.6438,-9.0183e-05,-1.169e-05,0.0,0 STARLINK-5930,1 55928U 23037Q   23284.54436324 -.00001169  00000-0 -90183-4 0  9998,2 55928  70.0010   3.4700 0002733 266.4408  93.6438 14.98325121 31652,6950.208,96.107,573.972,570.173,0.0
55928.0,STARLINK-5930,PAYLOAD,2023-10-12 13:05:53,14.98336387,0.0002857,70.0003,0.944,266.3984,93.6848,8.9299e-06,1.4e-07,0.0,0 STARLINK-5930,1 55928U 23037Q   23285.54575312  .00000014  00000-0  89299-5 0  9993,2 55928  70.0003   0.9440 0002857 266.3984  93.6848 14.98336387 31800,6950.173,96.107,574.024,570.052,0.0
55928.0,STARLINK-5930,PAYLOAD,2023-10-12 14:42:01,14.98337537,0.0002832,70.0004,0.7757,266.1128,93.9707,2.4222e-05,1.96e-06,0.0,0 STARLINK-5930,1 55928U 23037Q   23285.61251179  .00000196  00000-0  24222-4 0  9998,2 55928  70.0004   0.7757 0002832 266.1128  93.9707 14.98337537 32155,6950.17,96.107,574.003,570.066,0.0
55928.0,STARLINK-5930,PAYLOAD,2023-10-13 13:07:52,14.98339979,0.0002678,70.0005,358.4186,259.3801,100.7056,0.00028743,3.339e-05,0.0,0 STARLINK-5930,1 55928U 23037Q   23286.54713785  .00003339  00000-0  28743-3 0  9990,2 55928  70.0005 358.4186 0002678 259.3801 100.7056 14.98339979 32296,6950.162,96.106,573.888,570.166,0.0
55928.0,STARLINK-5930,PAYLOAD,2023-10-13 14:44:00,14.98336335,0.0002652,70.0006,358.2503,259.5156,100.5704,0.00039647,4.641e-05,0.0,0 STARLINK-5930,1 55928U 23037Q   23286.61389708  .00004641  00000-0  39647-3 0  9994,2 55928  70.0006 358.2503 0002652 259.5156 100.5704 14.98336335 31969,6950.173,96.107,573.881,570.195,0.0
55928.0,STARLINK-5930,PAYLOAD,2023-10-14 05:09:14,14.98332252,0.000267,69.9995,356.7337,264.24,95.8455,3.8821e-05,3.7e-06,0.0,0 STARLINK-5930,1 55928U 23037Q   23287.21474633  .00000370  00000-0  38821-4 0  9992,2 55928  69.9995 356.7337 0002670 264.2400  95.8455 14.98332252 32397,6950.186,96.107,573.907,570.195,0.0
55928.0,STARLINK-5930,PAYLOAD,2023-10-14 11:33:46,14.98327862,0.0002809,70.0003,356.0628,268.5688,91.515,-8.981e-05,-1.164e-05,0.0,0 STARLINK-5930,1 55928U 23037Q   23287.48179259 -.00001164  00000-0 -89810-4 0  9995,2 55928  70.0003 356.0628 0002809 268.5688  91.5150 14.98327862 32436,6950.2,96.107,574.017,570.112,0.0
55928.0,STARLINK-5930,PAYLOAD,2023-10-14 13:09:54,14.98328611,0.0002899,69.9999,355.8944,270.0541,90.0286,-0.00010815,-1.383e-05,0.0,0 STARLINK-5930,1 55928U 23037Q   23287.54855249 -.00001383  00000-0 -10815-3 0  9993,2 55928  69.9999 355.8944 0002899 270.0541  90.0286 14.98328611 32101,6950.197,96.107,574.077,570.047,0.0
55928.0,STARLINK-5930,PAYLOAD,2023-10-14 14:46:02,14.98329009,0.0002874,70.0001,355.7261,269.598,90.4849,-8.8971e-05,-1.154e-05,0.0,0 STARLINK-5930,1 55928U 23037Q   23287.61531149 -.00001154  00000-0 -88971-4 0  9996,2 55928  70.0001 355.7261 0002874 269.5980  90.4849 14.98329009 32114,6950.196,96.107,574.058,570.063,0.0
55928.0,STARLINK-5930,PAYLOAD,2023-10-15 11:35:48,14.98327996,0.0003005,69.999,353.5382,264.3207,95.7609,-0.00019791,-2.453e-05,0.0,0 STARLINK-5930,1 55928U 23037Q   23288.48319822 -.00002453  00000-0 -19791-3 0  9990,2 55928  69.9990 353.5382 0003005 264.3207  95.7609 14.98327996 32586,6950.199,96.107,574.153,569.976,0.0
55928.0,STARLINK-5930,PAYLOAD,2023-10-15 13:11:55,14.98336671,0.000295,69.9997,353.3692,267.0426,93.0396,-9.7848e-05,-1.26e-05,0.0,0 STARLINK-5930,1 55928U 23037Q   23288.54995040 -.00001260  00000-0 -97848-4 0  9994,2 55928  69.9997 353.3692 0002950 267.0426  93.0396 14.98336671 32254,6950.172,96.107,574.088,569.987,0.0
55928.0,STARLINK-5930,PAYLOAD,2023-10-15 14:48:03,14.9834434,0.0003058,69.9996,353.2011,266.3491,93.7319,-9.3514e-06,-2.05e-06,0.0,0 STARLINK-5930,1 55928U 23037Q   23288.61670289 -.00000205  00000-0 -93514-5 0  9992,2 55928  69.9996 353.2011 0003058 266.3491  93.7319 14.98344340 32604,6950.149,96.106,574.139,569.888,0.0
55928.0,STARLINK-5930,PAYLOAD,2023-10-15 21:12:34,14.98377756,0.0003253,70.0012,352.5279,272.2539,87.8247,-0.00076899,-9.268e-05,0.0,0 STARLINK-5930,1 55928U 23037Q   23288.88373642 -.00009268  00000-0 -76899-3 0  9997,2 55928  70.0012 352.5279 0003253 272.2539  87.8247 14.98377756 32308,6950.045,96.104,574.171,569.649,0.0
